NORAD_CAT_ID,OBJECT_NAME,OBJECT_TYPE,EPOCH,MEAN_MOTION,ECCENTRICITY,INCLINATION,RA_OF_ASC_NODE,ARG_OF_PERICENTER,MEAN_ANOMALY,BSTAR,MEAN_MOTION_DOT,MEAN_MOTION_DDOT,TLE_LINE0,TLE_LINE1,TLE_LINE2,SEMIMAJOR_AXIS,PERIOD,APOGEE,PERIGEE,DECAYED
50182.0,STARLINK-3277,PAYLOAD,2022-04-05 14:00:01,15.08871303,0.0002115,53.2163,207.0594,34.047,67.5357,-0.0044049,-0.00069776,0.0,0 STARLINK-3277,1 50182U 21125AC  22095.58335648 -.00069776  00000-0 -44049-2 0  9997,2 50182  53.2163 207.0594 0002115  34.0470  67.5357 15.08871303  3576,6917.785,95.436,541.113,538.187,0.0
50182.0,STARLINK-3277,PAYLOAD,2022-04-05 16:00:00,15.08846457,0.000216,53.2165,206.6857,33.0317,161.3978,-0.0023114,-0.00036894,0.0,0 STARLINK-3277,1 50182U 21125AC  22095.66667824 -.00036894  00000-0 -23114-2 0  9995,2 50182  53.2165 206.6857 0002160  33.0317 161.3978 15.08846457 19632,6917.861,95.437,541.22,538.231,0.0
50182.0,STARLINK-3277,PAYLOAD,2022-04-05 22:00:00,15.08842918,0.0002136,53.2162,205.5627,31.8593,81.2614,-0.0044982,-0.00071178,0.0,0 STARLINK-3277,1 50182U 21125AC  22095.91667824 -.00071178  00000-0 -44982-2 0  9993,2 50182  53.2162 205.5627 0002136  31.8593  81.2614 15.08842918  3635,6917.871,95.437,541.214,538.259,0.0
50182.0,STARLINK-3277,PAYLOAD,2022-04-06 14:00:01,15.08832638,0.0002257,53.2164,202.5706,35.1455,101.0888,0.00064096,9.926e-05,0.0,0 STARLINK-3277,1 50182U 21125AC  22096.58334491  .00009926  00000-0  64096-3 0  9997,2 50182  53.2164 202.5706 0002257  35.1455 101.0888 15.08832638 19774,6917.903,95.438,541.3290000000002,538.207,0.0
50182.0,STARLINK-3277,PAYLOAD,2022-04-06 22:00:00,15.08870146,0.0002221,53.2163,201.0737,33.3412,114.4804,-0.0035213,-0.00055943,0.0,0 STARLINK-3277,1 50182U 21125AC  22096.91667824 -.00055943  00000-0 -35213-2 0  9993,2 50182  53.2163 201.0737 0002221  33.3412 114.4804 15.08870146  3613,6917.788000000001,95.436,541.19,538.117,0.0
50182.0,STARLINK-3277,PAYLOAD,2022-04-07 14:00:01,15.08823076,0.0002259,53.2166,198.0814,36.7243,134.3568,0.00053865,8.291e-05,0.0,0 STARLINK-3277,1 50182U 21125AC  22097.58334491  .00008291  00000-0  53865-3 0  9994,2 50182  53.2166 198.0814 0002259  36.7243 134.3568 15.08823076  3604,6917.932,95.439,541.36,538.234,0.0
50182.0,STARLINK-3277,PAYLOAD,2022-04-07 20:00:01,15.08845654,0.0002275,53.2164,196.959,34.6589,55.1122,0.0010231,0.00016035,0.0,0 STARLINK-3277,1 50182U 21125AC  22097.83334491  .00016035  00000-0  10231-2 0  9996,2 50182  53.2164 196.9590 0002275  34.6589  55.1122 15.08845654 19966,6917.863,95.437,541.302,538.154,0.0
50182.0,STARLINK-3277,PAYLOAD,2022-04-07 22:00:00,15.08862245,0.0002211,53.2165,196.5844,35.9412,146.7268,-0.00088569,-0.00014365,0.0,0 STARLINK-3277,1 50182U 21125AC  22097.91667824 -.00014365  00000-0 -88569-3 0  9990,2 50182  53.2165 196.5844 0002211  35.9412 146.7268 15.08862245  3588,6917.812,95.436,541.207,538.148,0.0
50182.0,STARLINK-3277,PAYLOAD,2022-04-08 06:00:00,15.0878533,0.000223,53.2172,195.0938,36.4069,157.8594,0.0050563999999999,0.0008099,0.0,0 STARLINK-3277,1 50182U 21125AC  22098.25001157  .00080990  00000-0  50564-2 0  9997,2 50182  53.2172 195.0938 0002230  36.4069 157.8594 15.08785330 20021,6918.047,95.441,541.455,538.37,0.0
50182.0,STARLINK-3277,PAYLOAD,2022-04-08 14:00:03,15.0881911,0.0002175,53.2169,193.5923,31.2016,174.7962,0.00077019,0.00011984,0.0,0 STARLINK-3277,1 50182U 21125AC  22098.58336806  .00011984  00000-0  77019-3 0  9997,2 50182  53.2169 193.5923 0002175  31.2016 174.7962 15.08819110  3603,6917.944,95.439,541.314,538.305,0.0
50182.0,STARLINK-3277,PAYLOAD,2022-04-08 22:00:00,15.08851717,0.0002093,53.2168,192.0952,31.3357,186.1098,-0.00096682,-0.00015648,0.0,0 STARLINK-3277,1 50182U 21125AC  22098.91667824 -.00015648  00000-0 -96682-3 0  9991,2 50182  53.2168 192.0952 0002093  31.3357 186.1098 15.08851717 20128,6917.845,95.437,541.1569999999998,538.262,0.0
50182.0,STARLINK-3277,PAYLOAD,2022-04-09 14:00:01,15.08828321,0.0002228,53.217,189.1035,33.7306,206.9021,-0.0010513,-0.00016976,0.0,0 STARLINK-3277,1 50182U 21125AC  22099.58334491 -.00016976  00000-0 -10513-2 0  9999,2 50182  53.2170 189.1035 0002228  33.7306 206.9021 15.08828321  3606,6917.916,95.438,541.322,538.24,0.0
50182.0,STARLINK-3277,PAYLOAD,2022-04-09 22:00:00,15.08836577,0.0002098,53.2168,187.6061,31.7428,220.4761,-0.0014332,-0.00023024,0.0,0 STARLINK-3277,1 50182U 21125AC  22099.91667824 -.00023024  00000-0 -14332-2 0  9990,2 50182  53.2168 187.6061 0002098  31.7428 220.4761 15.08836577  3607,6917.891,95.438,541.207,538.304,0.0
50182.0,STARLINK-3277,PAYLOAD,2022-04-10 06:00:02,15.08832713,0.0001973,53.217,186.1092,36.2177,227.6423,0.0019205,0.00030403,0.0,0 STARLINK-3277,1 50182U 21125AC  22100.25002315  .00030403  00000-0  19205-2 0  9999,2 50182  53.2170 186.1092 0001973  36.2177 227.6423 15.08832713 20320,6917.903,95.438,541.133,538.403,0.0
50182.0,STARLINK-3277,PAYLOAD,2022-04-10 14:00:01,15.08840051,0.0002179,53.217,184.6147,31.9596,243.4314,0.00022729,3.331e-05,0.0,0 STARLINK-3277,1 50182U 21125AC  22100.58334491  .00003331  00000-0  22729-3 0  9994,2 50182  53.2170 184.6147 0002179  31.9596 243.4314 15.08840051  3601,6917.88,95.438,541.253,538.238,0.0
50182.0,STARLINK-3277,PAYLOAD,2022-04-10 22:00:00,15.08858244,0.0002054,53.2167,183.1172,30.7847,256.2251,-0.0012382,-0.0001995,0.0,0 STARLINK-3277,1 50182U 21125AC  22100.91667824 -.00019950  00000-0 -12382-2 0  9999,2 50182  53.2167 183.1172 0002054  30.7847 256.2251 15.08858244 20421,6917.825,95.436,541.111,538.269,0.0
50182.0,STARLINK-3277,PAYLOAD,2022-04-11 14:00:01,15.08823935,0.0002203,53.2168,180.1258,32.7482,277.4478,-0.00047678,-7.865e-05,0.0,0 STARLINK-3277,1 50182U 21125AC  22101.58334491 -.00007865  00000-0 -47678-3 0  9993,2 50182  53.2168 180.1258 0002203  32.7482 277.4478 15.08823935  3603,6917.929,95.439,541.319,538.27,0.0
50182.0,STARLINK-3277,PAYLOAD,2022-04-11 22:00:00,15.08825844,0.0002102,53.2165,178.6283,33.5367,288.2332,-0.0040433,-0.00064043,0.0,0 STARLINK-3277,1 50182U 21125AC  22101.91667824 -.00064043  00000-0 -40433-2 0  9991,2 50182  53.2165 178.6283 0002102  33.5367 288.2332 15.08825844  3586,6917.924,95.438,541.243,538.335,0.0
50182.0,STARLINK-3277,PAYLOAD,2022-04-12 06:00:02,15.08792819,0.00021,53.2167,177.1316,39.6854,293.6907,0.003285,0.00052314,0.0,0 STARLINK-3277,1 50182U 21125AC  22102.25002315  .00052314  00000-0  32850-2 0  9997,2 50182  53.2167 177.1316 0002100  39.6854 293.6907 15.08792819 20622,6918.025,95.441,541.342,538.437,0.0
50182.0,STARLINK-3277,PAYLOAD,2022-04-12 14:00:01,15.0880599,0.0002359,53.2167,175.6373,37.0557,307.816,0.0022235,0.00035244,0.0,0 STARLINK-3277,1 50182U 21125AC  22102.58334491  .00035244  00000-0  22235-2 0  9995,2 50182  53.2167 175.6373 0002359  37.0557 307.8160 15.08805990  3609,6917.984,95.44,541.481,538.217,0.0
50182.0,STARLINK-3277,PAYLOAD,2022-04-12 22:00:00,15.08836679,0.0002234,53.2165,174.1394,37.9397,318.5006,-0.00063317,-0.0001035,0.0,0 STARLINK-3277,1 50182U 21125AC  22102.91667824 -.00010350  00000-0 -63317-3 0  9991,2 50182  53.2165 174.1394 0002234  37.9397 318.5006 15.08836679 20725,6917.891,95.438,541.3009999999998,538.21,0.0
50182.0,STARLINK-3277,PAYLOAD,2022-04-13 14:00:03,15.08827989,0.000244,53.2168,171.1482,37.2683,342.4878,0.0026794,0.000426,0.0,0 STARLINK-3277,1 50182U 21125AC  22103.58336806  .00042600  00000-0  26794-2 0  9996,2 50182  53.2168 171.1482 0002440  37.2683 342.4878 15.08827989 20821,6917.917,95.438,541.47,538.094,0.0
50182.0,STARLINK-3277,PAYLOAD,2022-04-13 22:00:00,15.08871211,0.0002295,53.2167,169.6503,37.927,353.3081,-0.0017842,-0.00028597,0.0,0 STARLINK-3277,1 50182U 21125AC  22103.91667824 -.00028597  00000-0 -17842-2 0  9995,2 50182  53.2167 169.6503 0002295  37.9270 353.3081 15.08871211  3615,6917.785,95.436,541.238,538.062,0.0
50182.0,STARLINK-3277,PAYLOAD,2022-04-14 08:00:01,15.08858436,0.0002324,53.2168,167.7803,38.0112,97.7435,-0.0012469,-0.00020089,0.0,0 STARLINK-3277,1 50182U 21125AC  22104.33334491 -.00020089  00000-0 -12469-2 0  9991,2 50182  53.2168 167.7803 0002324  38.0112  97.7435 15.08858436 20949,6917.824000000001,95.436,541.297,538.081,0.0
50182.0,STARLINK-3277,PAYLOAD,2022-04-14 14:00:01,15.08832808,0.0002441,53.217,166.6592,34.7369,19.72,0.00097852,0.00015317,0.0,0 STARLINK-3277,1 50182U 21125AC  22104.58334491  .00015317  00000-0  97852-3 0  9994,2 50182  53.2170 166.6592 0002441  34.7369  19.7200 15.08832808  3605,6917.901999999999,95.438,541.456,538.0790000000002,0.0
50182.0,STARLINK-3277,PAYLOAD,2022-04-14 21:42:32,15.08859898,0.0002394,53.2167,165.2154,40.0908,320.0261,0.0004409,6.74e-05,0.0,0 STARLINK-3277,1 50182U 21125AC  22104.90454394  .00006740  00000-0  44090-3 0  9991,2 50182  53.2167 165.2154 0002394  40.0908 320.0261 15.08859898 21542,6917.82,95.436,541.341,538.028,0.0
50182.0,STARLINK-3277,PAYLOAD,2022-04-15 06:00:00,15.08858202,0.0002286,53.2171,163.6649,37.187,40.463,-0.00030433,-5.131e-05,0.0,0 STARLINK-3277,1 50182U 21125AC  22105.25001157 -.00005131  00000-0 -30433-3 0  9996,2 50182  53.2171 163.6649 0002286  37.1870  40.4630 15.08858202 21083,6917.825,95.436,541.271,538.1080000000002,0.0
50182.0,STARLINK-3277,PAYLOAD,2022-04-15 14:00:01,15.08839216,0.000248,53.217,162.17,33.6334,55.6449,0.0038417,0.00061386,0.0,0 STARLINK-3277,1 50182U 21125AC  22105.58334491  .00061386  00000-0  38417-2 0  9993,2 50182  53.2170 162.1700 0002480  33.6334  55.6449 15.08839216  3604,6917.8830000000025,95.438,541.4630000000002,538.0319999999998,0.0
50182.0,STARLINK-3277,PAYLOAD,2022-04-15 22:00:00,15.08866221,0.0002279,53.217,160.6719,35.1413,65.755,-0.001652,-0.00026503,0.0,0 STARLINK-3277,1 50182U 21125AC  22105.91667824 -.00026503  00000-0 -16520-2 0  9994,2 50182  53.2170 160.6719 0002279  35.1413  65.7550 15.08866221  3586,6917.8,95.436,541.242,538.089,0.0
